start=new Date('2022-02-21T00:00:00.000Z').valueOf();
sats=[{"MEAN_MOTION_DOT":"-0.00002341","CENTER_NAME":"EARTH","MEAN_MOTION_DDOT":"0.0000000000000","SITE":"AFETR","SEMIMAJOR_AXIS":"6925.363","DECAY_DATE":null,"ARG_OF_PERICENTER":"78.8352","RCS_SIZE":"LARGE","RA_OF_ASC_NODE":"305.8295","APOAPSIS":"548.289","PERIAPSIS":"546.168","OBJECT_NAME":"STARLINK-2473","TIME_SYSTEM":"UTC","COUNTRY_CODE":"US","CLASSIFICATION_TYPE":"U","EPOCH":"2022-02-20T20:46:46.539552","MEAN_ELEMENT_THEORY":"SGP4","ECCENTRICITY":"0.00015310","EPHEMERIS_TYPE":"0","OBJECT_ID":"2021-027AR","REV_AT_EPOCH":"4995","ELEMENT_SET_NO":"999","BSTAR":"-0.00013832000000","TLE_LINE2":"2 48131  53.0532 305.8295 0001531  78.8352 281.2809 15.06395150 49954","REF_FRAME":"TEME","TLE_LINE1":"1 48131U 21027AR  22051.86581643 -.00002341  00000-0 -13832-3 0  9992","MEAN_MOTION":"15.06395150","FILE":"3310556","INCLINATION":"53.0532","MEAN_ANOMALY":"281.2809","PERIOD":"95.592","GP_ID":"196513480","OBJECT_TYPE":"PAYLOAD","NORAD_CAT_ID":"48131","LAUNCH_DATE":"2021-04-07"},{"MEAN_MOTION_DDOT":"0.0000000000000","SITE":"AFETR","MEAN_MOTION_DOT":"0.00002210","CENTER_NAME":"EARTH","ARG_OF_PERICENTER":"61.7520","RCS_SIZE":"LARGE","RA_OF_ASC_NODE":"325.6333","DECAY_DATE":null,"SEMIMAJOR_AXIS":"6925.315","TIME_SYSTEM":"UTC","OBJECT_NAME":"STARLINK-2474","COUNTRY_CODE":"US","CLASSIFICATION_TYPE":"U","APOAPSIS":"548.263","PERIAPSIS":"546.098","ECCENTRICITY":"0.00015630","MEAN_ELEMENT_THEORY":"SGP4","EPHEMERIS_TYPE":"0","EPOCH":"2022-02-20T21:53:06.654912","TLE_LINE2":"2 48132  53.0556 325.6333 0001563  61.7520 298.3626 15.06410835 49670","REF_FRAME":"TEME","OBJECT_ID":"2021-027AS","REV_AT_EPOCH":"4967","ELEMENT_SET_NO":"999","BSTAR":"0.00016719000000","FILE":"3310556","INCLINATION":"53.0556","MEAN_ANOMALY":"298.3626","TLE_LINE1":"1 48132U 21027AS  22051.91188258  .00002210  00000-0  16719-3 0  9994","MEAN_MOTION":"15.06410835","GP_ID":"196513201","PERIOD":"95.591","LAUNCH_DATE":"2021-04-07","OBJECT_TYPE":"PAYLOAD","NORAD_CAT_ID":"48132"},{"MEAN_MOTION_DOT":"0.00002514","CENTER_NAME":"EARTH","SITE":"AFETR","MEAN_MOTION_DDOT":"0.0000000000000","SEMIMAJOR_AXIS":"6925.329","DECAY_DATE":null,"ARG_OF_PERICENTER":"64.5318","RA_OF_ASC_NODE":"325.6509","RCS_SIZE":"LARGE","PERIAPSIS":"545.968","APOAPSIS":"548.419","TIME_SYSTEM":"UTC","OBJECT_NAME":"STARLINK-2475","COUNTRY_CODE":"US","CLASSIFICATION_TYPE":"U","EPOCH":"2022-02-20T21:47:48.664032","ECCENTRICITY":"0.00017690","MEAN_ELEMENT_THEORY":"SGP4","EPHEMERIS_TYPE":"0","REV_AT_EPOCH":"4968","OBJECT_ID":"2021-027AT","BSTAR":"0.00018759000000","ELEMENT_SET_NO":"999","TLE_LINE2":"2 48133  53.0543 325.6509 0001769  64.5318 295.5854 15.06406526 49681","REF_FRAME":"TEME","MEAN_MOTION":"15.06406526","TLE_LINE1":"1 48133U 21027AT  22051.90820213  .00002514  00000-0  18759-3 0  9991","FILE":"3310556","INCLINATION":"53.0543","MEAN_ANOMALY":"295.5854","PERIOD":"95.592","GP_ID":"196512477","OBJECT_TYPE":"PAYLOAD","NORAD_CAT_ID":"48133","LAUNCH_DATE":"2021-04-07"},{"CENTER_NAME":"EARTH","MEAN_MOTION_DOT":"0.00001831","SITE":"AFETR","MEAN_MOTION_DDOT":"0.0000000000000","SEMIMAJOR_AXIS":"6925.341","DECAY_DATE":null,"RA_OF_ASC_NODE":"326.3092","RCS_SIZE":"LARGE","ARG_OF_PERICENTER":"72.1398","PERIAPSIS":"546.103","APOAPSIS":"548.310","CLASSIFICATION_TYPE":"U","COUNTRY_CODE":"US","TIME_SYSTEM":"UTC","OBJECT_NAME":"STARLINK-2476","EPOCH":"2022-02-20T18:15:30.125376","EPHEMERIS_TYPE":"0","MEAN_ELEMENT_THEORY":"SGP4","ECCENTRICITY":"0.00015940","ELEMENT_SET_NO":"999","BSTAR":"0.00014175000000","REV_AT_EPOCH":"4965","OBJECT_ID":"2021-027AU","REF_FRAME":"TEME","TLE_LINE2":"2 48134  53.0537 326.3092 0001594  72.1398 287.9764 15.06402320 49659","MEAN_MOTION":"15.06402320","TLE_LINE1":"1 48134U 21027AU  22051.76076534  .00001831  00000-0  14175-3 0  9994","MEAN_ANOMALY":"287.9764","INCLINATION":"53.0537","FILE":"3310556","PERIOD":"95.592","GP_ID":"196512728","NORAD_CAT_ID":"48134","OBJECT_TYPE":"PAYLOAD","LAUNCH_DATE":"2021-04-07"},{"GP_ID":"196486384","PERIOD":"95.592","LAUNCH_DATE":"2021-04-07","OBJECT_TYPE":"PAYLOAD","NORAD_CAT_ID":"48135","TLE_LINE2":"2 48135  53.0542 332.5629 0001554  73.6281 286.4879 15.06400622 49142","REF_FRAME":"TEME","OBJECT_ID":"2021-027AV","REV_AT_EPOCH":"4914","BSTAR":"0.00021726000000","ELEMENT_SET_NO":"999","FILE":"3310354","MEAN_ANOMALY":"286.4879","INCLINATION":"53.0542","TLE_LINE1":"1 48135U 21027AV  22051.48108803  .00002956  00000-0  21726-3 0  9998","MEAN_MOTION":"15.06400622","OBJECT_NAME":"STARLINK-2478","TIME_SYSTEM":"UTC","CLASSIFICATION_TYPE":"U","COUNTRY_CODE":"US","APOAPSIS":"548.288","PERIAPSIS":"546.135","ECCENTRICITY":"0.00015540","MEAN_ELEMENT_THEORY":"SGP4","EPHEMERIS_TYPE":"0","EPOCH":"2022-02-20T11:32:46.005792","MEAN_MOTION_DDOT":"0.0000000000000","SITE":"AFETR","MEAN_MOTION_DOT":"0.00002956","CENTER_NAME":"EARTH","ARG_OF_PERICENTER":"73.6281","RCS_SIZE":"LARGE","RA_OF_ASC_NODE":"332.5629","DECAY_DATE":null,"SEMIMAJOR_AXIS":"6925.347"},{"ARG_OF_PERICENTER":"67.1498","RCS_SIZE":"LARGE","RA_OF_ASC_NODE":"325.5871","SEMIMAJOR_AXIS":"6925.229","DECAY_DATE":null,"MEAN_MOTION_DDOT":"0.0000000000000","SITE":"AFETR","MEAN_MOTION_DOT":"0.00008377","CENTER_NAME":"EARTH","ECCENTRICITY":"0.00016390","MEAN_ELEMENT_THEORY":"SGP4","EPHEMERIS_TYPE":"0","EPOCH":"2022-02-20T22:03:42.163200","TIME_SYSTEM":"UTC","OBJECT_NAME":"STARLINK-2479","COUNTRY_CODE":"US","CLASSIFICATION_TYPE":"U","APOAPSIS":"548.229","PERIAPSIS":"545.959","FILE":"3310556","MEAN_ANOMALY":"292.9664","INCLINATION":"53.0559","TLE_LINE1":"1 48136U 21027AW  22051.91923800  .00008377  00000-0  57998-3 0  9992","MEAN_MOTION":"15.06438885","TLE_LINE2":"2 48136  53.0559 325.5871 0001639  67.1498 292.9664 15.06438885 49689","REF_FRAME":"TEME","OBJECT_ID":"2021-027AW","REV_AT_EPOCH":"4968","ELEMENT_SET_NO":"999","BSTAR":"0.00057998000000","LAUNCH_DATE":"2021-04-07","OBJECT_TYPE":"PAYLOAD","NORAD_CAT_ID":"48136","GP_ID":"196513702","PERIOD":"95.590"},{"FILE":"3310556","INCLINATION":"53.0549","MEAN_ANOMALY":"293.9608","TLE_LINE1":"1 48137U 21027AX  22051.87962448  .00000260  00000-0  36364-4 0  9997","MEAN_MOTION":"15.06396049","TLE_LINE2":"2 48137  53.0549 305.7607 0001649  66.1554 293.9608 15.06396049 49953","REF_FRAME":"TEME","OBJECT_ID":"2021-027AX","REV_AT_EPOCH":"4995","ELEMENT_SET_NO":"999","BSTAR":"0.00003636400000","LAUNCH_DATE":"2021-04-07","OBJECT_TYPE":"PAYLOAD","NORAD_CAT_ID":"48137","GP_ID":"196511977","PERIOD":"95.592","ARG_OF_PERICENTER":"66.1554","RCS_SIZE":"LARGE","RA_OF_ASC_NODE":"305.7607","SEMIMAJOR_AXIS":"6925.361","DECAY_DATE":null,"MEAN_MOTION_DDOT":"0.0000000000000","SITE":"AFETR","MEAN_MOTION_DOT":"0.00000260","CENTER_NAME":"EARTH","MEAN_ELEMENT_THEORY":"SGP4","ECCENTRICITY":"0.00016490","EPHEMERIS_TYPE":"0","EPOCH":"2022-02-20T21:06:39.555072","TIME_SYSTEM":"UTC","OBJECT_NAME":"STARLINK-2480","CLASSIFICATION_TYPE":"U","COUNTRY_CODE":"US","APOAPSIS":"548.368","PERIAPSIS":"546.084"},{"OBJECT_TYPE":"PAYLOAD","NORAD_CAT_ID":"48138","LAUNCH_DATE":"2021-04-07","PERIOD":"95.591","GP_ID":"196512228","MEAN_MOTION":"15.06411248","TLE_LINE1":"1 48138U 21027AY  22051.90451424  .00001606  00000-0  12667-3 0  9993","FILE":"3310556","MEAN_ANOMALY":"281.9731","INCLINATION":"53.0548","REV_AT_EPOCH":"4968","OBJECT_ID":"2021-027AY","ELEMENT_SET_NO":"999","BSTAR":"0.00012667000000","TLE_LINE2":"2 48138  53.0548 325.6680 0001839  78.1464 281.9731 15.06411248 49682","REF_FRAME":"TEME","EPOCH":"2022-02-20T21:42:30.030336","MEAN_ELEMENT_THEORY":"SGP4","ECCENTRICITY":"0.00018390","EPHEMERIS_TYPE":"0","PERIAPSIS":"545.906","APOAPSIS":"548.453","OBJECT_NAME":"STARLINK-2481","TIME_SYSTEM":"UTC","COUNTRY_CODE":"US","CLASSIFICATION_TYPE":"U","DECAY_DATE":null,"SEMIMAJOR_AXIS":"6925.314","ARG_OF_PERICENTER":"78.1464","RA_OF_ASC_NODE":"325.6680","RCS_SIZE":"LARGE","MEAN_MOTION_DOT":"0.00001606","CENTER_NAME":"EARTH","SITE":"AFETR","MEAN_MOTION_DDOT":"0.0000000000000"},{"OBJECT_ID":"2021-027AZ","REV_AT_EPOCH":"4996","BSTAR":"0.00018385000000","ELEMENT_SET_NO":"999","TLE_LINE2":"2 48139  53.0551 305.6921 0001457  74.0852 286.0297 15.06403926 49963","REF_FRAME":"TEME","TLE_LINE1":"1 48139U 21027AZ  22051.89530551  .00002458  00000-0  18385-3 0  9990","MEAN_MOTION":"15.06403926","FILE":"3310556","MEAN_ANOMALY":"286.0297","INCLINATION":"53.0551","PERIOD":"95.592","GP_ID":"196513481","OBJECT_TYPE":"PAYLOAD","NORAD_CAT_ID":"48139","LAUNCH_DATE":"2021-04-07","MEAN_MOTION_DOT":"0.00002458","CENTER_NAME":"EARTH","MEAN_MOTION_DDOT":"0.0000000000000","SITE":"AFETR","SEMIMAJOR_AXIS":"6925.337","DECAY_DATE":null,"ARG_OF_PERICENTER":"74.0852","RCS_SIZE":"LARGE","RA_OF_ASC_NODE":"305.6921","APOAPSIS":"548.211","PERIAPSIS":"546.193","TIME_SYSTEM":"UTC","OBJECT_NAME":"STARLINK-2482","CLASSIFICATION_TYPE":"U","COUNTRY_CODE":"US","EPOCH":"2022-02-20T21:29:14.396064","ECCENTRICITY":"0.00014570","MEAN_ELEMENT_THEORY":"SGP4","EPHEMERIS_TYPE":"0"},{"MEAN_MOTION":"15.06393747","TLE_LINE1":"1 48140U 21027BA  22051.86302609 -.00002781  00000-0 -16786-3 0  9994","FILE":"3310556","MEAN_ANOMALY":"303.2028","INCLINATION":"53.0560","REV_AT_EPOCH":"4967","OBJECT_ID":"2021-027BA","ELEMENT_SET_NO":"999","BSTAR":"-0.00016786000000","TLE_LINE2":"2 48140  53.0560 325.8437 0001725  56.9127 303.2028 15.06393747 49674","REF_FRAME":"TEME","OBJECT_TYPE":"PAYLOAD","NORAD_CAT_ID":"48140","LAUNCH_DATE":"2021-04-07","PERIOD":"95.593","GP_ID":"196513202","DECAY_DATE":null,"SEMIMAJOR_AXIS":"6925.368","ARG_OF_PERICENTER":"56.9127","RA_OF_ASC_NODE":"325.8437","RCS_SIZE":"LARGE","MEAN_MOTION_DOT":"-0.00002781","CENTER_NAME":"EARTH","SITE":"AFETR","MEAN_MOTION_DDOT":"0.0000000000000","EPOCH":"2022-02-20T20:42:45.454176","ECCENTRICITY":"0.00017250","MEAN_ELEMENT_THEORY":"SGP4","EPHEMERIS_TYPE":"0","PERIAPSIS":"546.038","APOAPSIS":"548.427","OBJECT_NAME":"STARLINK-2483","TIME_SYSTEM":"UTC","CLASSIFICATION_TYPE":"U","COUNTRY_CODE":"US"}];
